OBJECT_NAME,OBJECT_ID,EPOCH,MEAN_MOTION,ECCENTRICITY,INCLINATION,RA_OF_ASC_NODE,ARG_OF_PERICENTER,MEAN_ANOMALY,EPHEMERIS_TYPE,CLASSIFICATION_TYPE,NORAD_CAT_ID,ELEMENT_SET_NO,REV_AT_EPOCH,BSTAR,MEAN_MOTION_DOT,MEAN_MOTION_DDOT
STARLINK-1680,2020-070AC,2021-10-02T04:52:36.461856,15.06398007,.0001653,53.0534,231.7860,66.8769,293.2394,0,U,46558,999,5559,.55599E-4,.547E-5,0
STARLINK-1681,2020-070AD,2021-10-02T03:00:28.566432,15.06400647,.0001821,53.0547,217.1268,60.3356,299.7814,0,U,46559,999,5581,.7368E-4,.816E-5,0
STARLINK-1706,2020-070AE,2021-10-02T03:38:17.043360,15.06404859,.000166,53.0559,232.0173,63.8709,296.2451,0,U,46560,999,5561,.1462E-3,.1897E-4,0
STARLINK-1709,2020-070AF,2021-10-02T07:10:36.851232,15.06416601,.00016,53.0531,231.3533,64.1549,295.9605,0,U,46561,999,5564,.11061E-3,.1367E-4,0
STARLINK-1714,2020-070AG,2021-10-02T04:02:50.806176,15.06400120,.0001605,53.0546,226.9349,62.5198,297.5954,0,U,46562,999,5568,.47429E-4,.425E-5,0
STARLINK-1730,2020-070AH,2021-10-02T03:36:18.187200,15.06393925,.0001485,53.0533,227.0088,60.2147,299.8990,0,U,46563,999,5568,.39109E-4,.301E-5,0
STARLINK-1733,2020-070AJ,2021-10-02T03:09:45.747936,15.06403682,.0001596,53.0542,227.1020,63.9508,296.1645,0,U,46564,999,5568,.19339E-4,.7E-7,0
STARLINK-1735,2020-070AK,2021-10-02T04:13:27.811776,15.06396067,.0001602,53.0558,226.8122,67.1921,292.9237,0,U,46565,999,5568,.24497E-4,.83E-6,0
STARLINK-1740,2020-070AL,2021-10-02T07:03:18.369504,15.06400840,.000154,53.0553,226.3800,63.8822,296.2325,0,U,46566,999,5538,.65725E-4,.698E-5,0
STARLINK-1741,2020-070AM,2021-10-02T04:34:41.853216,15.06402237,.0001604,53.0532,226.8440,75.0579,285.0588,0,U,46567,999,5569,.3463E-3,.4881E-4,0
STARLINK-1743,2020-070AN,2021-10-02T07:33:31.422528,15.31984014,.0008068,53.0528,237.1877,274.7660,85.2418,0,U,46568,999,5557,.25606E-2,.80744E-3,0
STARLINK-1747,2020-070AP,2021-10-02T04:55:55.299360,15.06404710,.0001793,53.0523,226.7654,67.1075,293.0103,0,U,46569,999,5569,.21284E-3,.289E-4,0
STARLINK-1748,2020-070AQ,2021-10-02T04:18:46.342656,15.06408030,.0001563,53.0529,226.8729,69.6733,290.4424,0,U,46570,999,5568,.17068E-4,-.27E-6,0
STARLINK-1753,2020-070AR,2021-10-02T03:25:41.286144,15.06394367,.0001627,53.0533,227.0566,62.9810,297.1345,0,U,46571,999,5568,.69539E-4,.754E-5,0
STARLINK-1531,2020-070AS,2021-10-02T04:16:07.520448,15.06390930,.000129,53.0543,246.8962,75.9620,284.1512,0,U,46572,999,5540,-.10828E-4,-.443E-5,0
STARLINK-1650,2020-070AT,2021-10-02T06:54:40.100832,15.06418352,.0001637,53.0530,231.3953,66.2579,293.8582,0,U,46573,999,5564,-.84312E-4,-.1538E-4,0
STARLINK-1660,2020-070AU,2021-10-02T03:22:22.358784,15.06396948,.0001676,53.0539,232.0666,77.9162,282.2015,0,U,46574,999,5561,.5157E-4,.487E-5,0
STARLINK-1675,2020-070AV,2021-10-02T04:46:35.417856,15.06404724,.0001534,53.0537,206.8024,68.5560,291.5592,0,U,46575,999,5596,.54425E-4,.529E-5,0
STARLINK-1677,2020-070AW,2021-10-02T04:47:18.126240,15.06398595,.0001693,53.0542,231.7940,66.5976,293.5190,0,U,46576,999,5562,.3723E-4,.273E-5,0
STARLINK-1682,2020-070AX,2021-10-02T03:54:13.031712,15.06406116,.0001692,53.0542,231.9630,61.8712,298.2448,0,U,46577,999,5561,-.51471E-4,-.1048E-4,0
STARLINK-1683,2020-070AY,2021-10-02T04:55:53.537664,15.06391600,.000154,53.0546,216.7751,68.5097,291.6056,0,U,46578,999,5583,.32662E-4,.205E-5,0
STARLINK-1705,2020-070AZ,2021-10-02T03:32:58.536672,15.06405762,.0001555,53.0537,232.0334,67.3484,292.7669,0,U,46579,999,5561,.1784E-3,.2377E-4,0
STARLINK-1708,2020-070BA,2021-10-02T04:36:40.388832,15.06400582,.0001519,53.0539,231.8240,64.2741,295.8405,0,U,46580,999,5562,.14221E-3,.1837E-4,0
STARLINK-1712,2020-070BB,2021-10-02T03:46:54.949152,15.06402161,.0001706,53.0543,226.9695,59.4940,300.6217,0,U,46581,999,5568,.62854E-4,.655E-5,0
STARLINK-1728,2020-070BC,2021-10-02T09:57:06.128064,15.06396930,.0001449,53.0530,225.8336,67.2623,292.8519,0,U,46582,999,5572,-.19312E-4,-.569E-5,0
STARLINK-1729,2020-070BD,2021-10-02T04:37:20.908704,15.06395092,.0001522,53.0551,246.8328,71.0794,289.0360,0,U,46583,999,5540,.21111E-4,.33E-6,0
STARLINK-1732,2020-070BE,2021-10-02T05:06:31.935168,15.06404605,.0001697,53.0524,226.7291,58.7688,301.3467,0,U,46584,999,5569,.12405E-3,.1567E-4,0
STARLINK-1736,2020-070BF,2021-10-02T03:57:32.274432,15.06402092,.0001486,53.0539,226.9572,71.5261,288.5890,0,U,46585,999,5568,-.79719E-4,-.1469E-4,0
STARLINK-1737,2020-070BG,2021-10-02T11:39:18.725760,15.06397941,.0001881,53.0531,225.5115,63.5709,296.5473,0,U,46586,999,5541,.44455E-4,.381E-5,0
STARLINK-1746,2020-070BJ,2021-10-02T04:50:36.772800,15.06395973,.000178,53.0526,226.7784,67.2334,292.8843,0,U,46588,999,5569,.30119E-4,.167E-5,0
