STARLINK-1680           
1 46558U 20070AC  21275.20319979  .00000547  00000-0  55599-4 0  9997
2 46558  53.0534 231.7860 0001653  66.8769 293.2394 15.06398007 55599
STARLINK-1681           
1 46559U 20070AD  21275.12533063  .00000816  00000-0  73680-4 0  9991
2 46559  53.0547 217.1268 0001821  60.3356 299.7814 15.06400647 55819
STARLINK-1706           
1 46560U 20070AE  21275.15158615  .00001897  00000-0  14620-3 0  9990
2 46560  53.0559 232.0173 0001660  63.8709 296.2451 15.06404859 55612
STARLINK-1709           
1 46561U 20070AF  21275.29903763  .00001367  00000-0  11061-3 0  9996
2 46561  53.0531 231.3533 0001600  64.1549 295.9605 15.06416601 55643
STARLINK-1714           
1 46562U 20070AG  21275.16864359  .00000425  00000-0  47429-4 0  9992
2 46562  53.0546 226.9349 0001605  62.5198 297.5954 15.06400120 55680
STARLINK-1730           
1 46563U 20070AH  21275.15021050  .00000301  00000-0  39109-4 0  9994
2 46563  53.0533 227.0088 0001485  60.2147 299.8990 15.06393925 55683
STARLINK-1733           
1 46564U 20070AJ  21275.13177949  .00000007  00000-0  19339-4 0  9998
2 46564  53.0542 227.1020 0001596  63.9508 296.1645 15.06403682 55684
STARLINK-1735           
1 46565U 20070AK  21275.17601634  .00000083  00000-0  24497-4 0  9991
2 46565  53.0558 226.8122 0001602  67.1921 292.9237 15.06396067 55683
STARLINK-1740           
1 46566U 20070AL  21275.29396261  .00000698  00000-0  65725-4 0  9993
2 46566  53.0553 226.3800 0001540  63.8822 296.2325 15.06400840 55388
STARLINK-1741           
1 46567U 20070AM  21275.19076219  .00004881  00000-0  34630-3 0  9999
2 46567  53.0532 226.8440 0001604  75.0579 285.0588 15.06402237 55699
STARLINK-1743           
1 46568U 20070AN  21275.31494702  .00080744  00000-0  25606-2 0  9999
2 46568  53.0528 237.1877 0008068 274.7660  85.2418 15.31984014 55579
STARLINK-1747           
1 46569U 20070AP  21275.20550115  .00002890  00000-0  21284-3 0  9994
2 46569  53.0523 226.7654 0001793  67.1075 293.0103 15.06404710 55699
STARLINK-1748           
1 46570U 20070AQ  21275.17970304 -.00000027  00000-0  17068-4 0  9995
2 46570  53.0529 226.8729 0001563  69.6733 290.4424 15.06408030 55689
STARLINK-1753           
1 46571U 20070AR  21275.14283896  .00000754  00000-0  69539-4 0  9992
2 46571  53.0533 227.0566 0001627  62.9810 297.1345 15.06394367 55683
STARLINK-1531           
1 46572U 20070AS  21275.17786482 -.00000443  00000-0 -10828-4 0  9999
2 46572  53.0543 246.8962 0001290  75.9620 284.1512 15.06390930 55407
STARLINK-1650           
1 46573U 20070AT  21275.28796413 -.00001538  00000-0 -84312-4 0  9992
2 46573  53.0530 231.3953 0001637  66.2579 293.8582 15.06418352 55643
STARLINK-1660           
1 46574U 20070AU  21275.14053656  .00000487  00000-0  51570-4 0  9993
2 46574  53.0539 232.0666 0001676  77.9162 282.2015 15.06396948 55618
STARLINK-1675           
1 46575U 20070AV  21275.19902104  .00000529  00000-0  54425-4 0  9999
2 46575  53.0537 206.8024 0001534  68.5560 291.5592 15.06404724 55968
STARLINK-1677           
1 46576U 20070AW  21275.19951535  .00000273  00000-0  37230-4 0  9993
2 46576  53.0542 231.7940 0001693  66.5976 293.5190 15.06398595 55621
STARLINK-1682           
1 46577U 20070AX  21275.16265083 -.00001048  00000-0 -51471-4 0  9993
2 46577  53.0542 231.9630 0001692  61.8712 298.2448 15.06406116 55611
STARLINK-1683           
1 46578U 20070AY  21275.20548076  .00000205  00000-0  32662-4 0  9998
2 46578  53.0546 216.7751 0001540  68.5097 291.6056 15.06391600 55830
STARLINK-1705           
1 46579U 20070AZ  21275.14789973  .00002377  00000-0  17840-3 0  9997
2 46579  53.0537 232.0334 0001555  67.3484 292.7669 15.06405762 55615
STARLINK-1708           
1 46580U 20070BA  21275.19213413  .00001837  00000-0  14221-3 0  9995
2 46580  53.0539 231.8240 0001519  64.2741 295.8405 15.06400582 55622
STARLINK-1712           
1 46581U 20070BB  21275.15758043  .00000655  00000-0  62854-4 0  9998
2 46581  53.0543 226.9695 0001706  59.4940 300.6217 15.06402161 55689
STARLINK-1728           
1 46582U 20070BC  21275.41465426 -.00000569  00000-0 -19312-4 0  9995
2 46582  53.0530 225.8336 0001449  67.2623 292.8519 15.06396930 55723
STARLINK-1729           
1 46583U 20070BD  21275.19260311  .00000033  00000-0  21111-4 0  9991
2 46583  53.0551 246.8328 0001522  71.0794 289.0360 15.06395092 55400
STARLINK-1732           
1 46584U 20070BE  21275.21286962  .00001567  00000-0  12405-3 0  9993
2 46584  53.0524 226.7291 0001697  58.7688 301.3467 15.06404605 55692
STARLINK-1736           
1 46585U 20070BF  21275.16495688 -.00001469  00000-0 -79719-4 0  9990
2 46585  53.0539 226.9572 0001486  71.5261 288.5890 15.06402092 55682
STARLINK-1737           
1 46586U 20070BG  21275.48563340  .00000381  00000-0  44455-4 0  9996
2 46586  53.0531 225.5115 0001881  63.5709 296.5473 15.06397941 55413
STARLINK-1746           
1 46588U 20070BJ  21275.20181450  .00000167  00000-0  30119-4 0  9990
2 46588  53.0526 226.7784 0001780  67.2334 292.8843 15.06395973 55690
